QIANFAN-89              
1 63175U 25046S   25355.46824109  .00000133  00000+0  18675-3 0  9999
2 63175  88.9771 319.1343 0018378  98.0240 262.2997 13.50978782 48580
QIANFAN-90              
1 63176U 25046T   25355.42291196  .00000104  00000+0  14241-3 0  9993
2 63176  88.9771 319.1113 0015331  96.1891 264.1008 13.50979035 48590
QIANFAN-91              
1 66033U 25233A   25355.47820279  .00000053  00000+0  48253-4 0  9995
2 66033  88.9946  61.2363 0016885  19.6099 340.5707 13.67494079  9170
QIANFAN-92              
1 66034U 25233B   25355.38399875  .00000051  00000+0  44804-4 0  9995
2 66034  88.9941  61.2397 0016777  20.3649 339.8178 13.68722612  9163
QIANFAN-93              
1 66035U 25233C   25355.48288692  .00000055  00000+0  49733-4 0  9991
2 66035  88.9957  61.2389 0015106  23.2230 336.9611 13.68719337  9176
QIANFAN-94              
1 66036U 25233D   25355.20261918  .00000063  00000+0  55334-4 0  9997
2 66036  88.9988  61.2536 0015389  17.2900 342.8785 13.72535451  9148
QIANFAN-95              
1 66037U 25233E   25355.46314763  .00000103  00000+0  49516-4 0  9993
2 66037  88.9954  61.0703 0014443  18.9470 341.2249 14.10779259  9266
QIANFAN-96              
1 66038U 25233F   25355.28907091  .00000054  00000+0  48179-4 0  9995
2 66038  88.9922  61.2594 0015911  24.5676 335.6240 13.68964280  9141
